{
    "links": {
        "self": "http://www.neowsapp.com/rest/v1/neo/3631992?api_key=iIulBulltgU6a56xZRHN4H3l9WmuAYTsLGpBGhQ2"
    },
    "id": "3631992",
    "neo_reference_id": "3631992",
    "name": "(2013 ER41)",
    "designation": "2013 ER41",
    "nasa_jpl_url": "http://ssd.jpl.nasa.gov/sbdb.cgi?sstr=3631992",
    "absolute_magnitude_h": 23.3,
    "estimated_diameter": {
        "kilometers": {
            "estimated_diameter_min": 0.058150704,
            "estimated_diameter_max": 0.130028927
        },
        "meters": {
            "estimated_diameter_min": 58.1507039646,
            "estimated_diameter_max": 130.0289270043
        },
        "miles": {
            "estimated_diameter_min": 0.0361331611,
            "estimated_diameter_max": 0.0807962044
        },
        "feet": {
            "estimated_diameter_min": 190.7831555951,
            "estimated_diameter_max": 426.6041048727
        }
    },
    "is_potentially_hazardous_asteroid": false,
    "close_approach_data": [
        {
            "close_approach_date": "2009-04-09",
            "close_approach_date_full": "2009-Apr-09 07:18",
            "epoch_date_close_approach": 1239261480000,
            "relative_velocity": {
                "kilometers_per_second": "19.7934164303",
                "kilometers_per_hour": "71256.2991489702",
                "miles_per_hour": "44275.8932128698"
            },
            "miss_distance": {
                "astronomical": "0.4650274792",
                "lunar": "180.8956894088",
                "kilometers": "69567120.379789304",
                "miles": "43227004.1411842352"
            },
            "orbiting_body": "Earth"
        },
        {
            "close_approach_date": "2011-03-27",
            "close_approach_date_full": "2011-Mar-27 11:28",
            "epoch_date_close_approach": 1301225280000,
            "relative_velocity": {
                "kilometers_per_second": "15.157986749",
                "kilometers_per_hour": "54568.7522965008",
                "miles_per_hour": "33906.9005589007"
            },
            "miss_distance": {
                "astronomical": "0.2191256146",
                "lunar": "85.2398640794",
                "kilometers": "32780725.206600902",
                "miles": "20368998.1203883676"
            },
            "orbiting_body": "Earth"
        },
        {
            "close_approach_date": "2013-03-13",
            "close_approach_date_full": "2013-Mar-13 18:33",
            "epoch_date_close_approach": 1363199580000,
            "relative_velocity": {
                "kilometers_per_second": "13.1991780136",
                "kilometers_per_hour": "47517.0408490723",
                "miles_per_hour": "29525.2412986916"
            },
            "miss_distance": {
                "astronomical": "0.0662887223",
                "lunar": "25.7863129747",
                "kilometers": "9916651.661101501",
                "miles": "6161921.6101066738"
            },
            "orbiting_body": "Earth"
        },
        {
            "close_approach_date": "2015-02-28",
            "close_approach_date_full": "2015-Feb-28 18:54",
            "epoch_date_close_approach": 1425149640000,
            "relative_velocity": {
                "kilometers_per_second": "15.3092037819",
                "kilometers_per_hour": "55113.1336149926",
                "miles_per_hour": "34245.157939827"
            },
            "miss_distance": {
                "astronomical": "0.3085450827",
                "lunar": "120.0240371703",
                "kilometers": "46157687.170893849",
                "miles": "28681056.8497151562"
            },
            "orbiting_body": "Earth"
        }
    ],
    "orbital_data": {
        "orbit_id": "12",
        "orbit_determination_date": "2017-04-06 08:46:29",
        "first_observation_date": "2013-03-11",
        "last_observation_date": "2013-03-22",
        "data_arc_in_days": 11,
        "observations_used": 43,
        "orbit_uncertainty": "8",
        "minimum_orbit_intersection": ".0512243",
        "jupiter_tisserand_invariant": "4.273",
        "epoch_osculation": "2456365.5",
        "eccentricity": ".3354074614905948",
        "semi_major_axis": "1.566323596248215",
        "inclination": "23.09786698323958",
        "ascending_node_longitude": "175.8575770214239",
        "orbital_period": "716.0125963442345",
        "perihelion_distance": "1.040966974957782",
        "perihelion_argument": "348.3961629937628",
        "aphelion_distance": "2.091680217538649",
        "perihelion_time": "2456354.803596556662",
        "mean_anomaly": "5.377985330512805",
        "mean_motion": ".5027844507737184",
        "equinox": "J2000",
        "orbit_class": {
            "orbit_class_type": "AMO",
            "orbit_class_description": "Near-Earth asteroid orbits similar to that of 1221 Amor",
            "orbit_class_range": "1.017 AU < q (perihelion) < 1.3 AU"
        }
    },
    "is_sentry_object": false
}